P/2011 N1 (ASH),e,35.7865,77.6293,330.4544,6.236964,0.0632768,0.54556554,283.5850,09/09.0/2024,2000,g 11.5,4.0
# From MPEC 2022-ED3
P/2011 P1 (McNaught),e,5.6546,4.2769,349.1974,7.459234,0.0483797,0.32687430,249.0360,09/09.0/2024,2000,g  9.0,4.0
# From MPEC 2022-HC2
P/2011 S1 (Gibbs),e,2.6890,218.8957,192.7987,8.590881,0.0391424,0.20151772,143.6409,09/09.0/2024,2000,g  8.0,4.0
# From MPC 79022
P/2011 UA134 (Spacewatch-PANSTARRS),e,10.4405,40.3994,32.4166,5.613102,0.0741139,0.63029934,348.0848,09/09.0/2024,2000,g 17.5,4.0
# From MPEC 2023-UR6
P/2011 V1 (Boattini),e,7.3839,46.4865,269.6499,3.856157,0.1301584,0.54847914,283.0070,09/09.0/2024,2000,g 15.5,4.0
# From MPC 82718
P/2011 W1 (PANSTARRS),e,3.7167,161.8224,282.9303,4.672339,0.0975894,0.28857582,92.0236,09/09.0/2024,2000,g 11.5,4.0
# From MPEC 2018-D88
P/2011 WG113,e,9.8453,86.3045,67.7692,3.156639,0.1757384,0.58147815,58.9774,09/09.0/2024,2000,g  9.0,4.0
# From MPC 79342
P/2011 Y2 (Boattini),e,6.3889,309.3257,132.0317,6.231930,0.0633534,0.71114542,289.1622,09/09.0/2024,2000,g 15.0,4.0
# From MPEC 2022-K19
P/2012 B1 (PANSTARRS),e,7.6073,36.2136,162.0309,6.538020,0.0589569,0.40978021,241.5588,09/09.0/2024,2000,g  9.0,4.0
# From MPC 78590
P/2012 C3 (PANSTARRS),e,9.0920,135.3677,344.9542,9.748681,0.0323806,0.63011148,359.9758,10/06.0/2011,2000,g 13.0,4.0
# From MPC 84931
P/2012 F2 (PANSTARRS),e,14.6986,226.9585,33.2056,6.344277,0.0616781,0.54020413,258.0188,09/09.0/2024,2000,g 12.0,4.0
# From MPEC 2022-ED3
P/2012 G1 (PANSTARRS),e,12.1681,283.2468,266.0439,4.163652,0.1160092,0.32916948,167.1673,09/09.0/2024,2000,g 15.0,4.0
# From MPC 80898
P/2012 K3 (Gibbs),e,13.1830,125.8120,172.1815,3.631238,0.1424367,0.42173464,263.8556,09/09.0/2024,2000,g 15.0,4.0
# From MPC 88326
P/2012 NJ (La Sagra),e,84.3977,315.6653,338.4010,8.467698,0.0399996,0.84643411,178.7854,09/09.0/2024,2000,g 14.5,4.0
# From MPC 81470
P/2012 O1 (McNaught),e,7.4279,91.9429,238.2967,3.542760,0.1478058,0.59365725,298.2031,09/09.0/2024,2000,g 17.5,4.0
# From MPC 80899
P/2012 O2 (McNaught),e,24.4576,120.6689,183.4398,3.628687,0.1425870,0.53126941,278.7897,09/09.0/2024,2000,g 17.0,4.0
# From MPC 82320
P/2012 T2 (PANSTARRS),e,12.5706,73.8821,311.0500,5.720378,0.0720389,0.16238807,297.8495,09/09.0/2024,2000,g 10.0,4.0
# From MPC 80900
P/2012 T3 (PANSTARRS),e,9.5549,114.3384,195.5041,6.155187,0.0645420,0.61576602,291.2708,09/09.0/2024,2000,g 15.0,4.0
# From MPC 82720
P/2012 U2 (PANSTARRS),e,10.7607,185.3070,228.3771,7.126708,0.0518049,0.50062766,223.1061,09/09.0/2024,2000,g 12.5,4.0
# From MPEC 2024-PC5
P/2012 US27 (SidingSpring),e,39.3704,49.2112,0.8681,5.164427,0.0839790,0.64856105,356.5015,09/09.0/2024,2000,g 13.5,4.0
# From MPC 82721
P/2013 AL76 (Catalina),e,144.8980,146.0589,27.0796,6.501306,0.0594570,0.68568943,255.7987,09/09.0/2024,2000,g 16.0,4.0
# From MPEC 2022-K19
P/2013 EW90,e,31.8010,160.2642,345.8826,4.109144,0.1183251,0.19523203,154.2121,09/09.0/2024,2000,g 14.3,4.0
# From MPC 91612
P/2013 G1 (Kowalski),e,5.4569,221.3107,51.4444,6.904560,0.0543250,0.50997377,213.8694,09/09.0/2024,2000,g 11.0,4.0
# From MPC 84025
P/2013 G4 (PANSTARRS),e,5.9188,339.5895,214.5523,4.433921,0.1055655,0.40912265,85.8290,09/09.0/2024,2000,g 15.0,4.0
# From MPC 91613
P/2013 J2 (McNaught),e,15.5030,289.3110,37.8781,6.226661,0.0634339,0.65624879,255.5655,09/09.0/2024,2000,g 13.0,4.0
# From MPC 86229
P/2013 N3 (PANSTARRS),e,2.1690,17.5640,323.9262,7.402362,0.0489383,0.59159714,188.8137,09/09.0/2024,2000,g 13.0,4.0
# From MPC 85834
P/2013 N5 (PANSTARRS),e,23.4329,187.1686,176.9608,6.797908,0.0556085,0.73191567,226.7989,09/09.0/2024,2000,g 17.0,4.0
# From MPC 85834
P/2013 P1 (PANSTARRS),e,18.6981,160.6684,138.1934,8.590619,0.0391442,0.60290233,165.1441,09/09.0/2024,2000,g 12.0,4.0
# From MPEC 2022-V95
P/2013 R3 (Catalina-PANSTARRS),e,0.8647,342.0153,11.3574,3.032788,0.1866126,0.27599302,32.1561,09/09.0/2024,2000,g 14.0,4.0
# From unp
P/2013 R3-A (Catalina-PANSTARRS),e,0.8638,341.9700,11.4364,3.032554,0.1866342,0.27592656,32.2294,09/09.0/2024,2000,g  9.0,4.0
# From MPEC 2015-M77
P/2013 R3-B (Catalina-PANSTARRS),e,0.8650,342.0261,11.3711,3.032763,0.1866149,0.27596943,32.1521,09/09.0/2024,2000,g  9.0,4.0
# From MPC 85835
P/2013 T1 (PANSTARRS),e,24.2801,10.0988,346.1781,5.854837,0.0695716,0.62384075,281.4765,09/09.0/2024,2000,g 16.5,4.0
# From MPC 86643
P/2013 T2 (Schwartz),e,9.4494,0.8166,345.5774,3.493101,0.1509688,0.50039705,263.3347,09/09.0/2024,2000,g 16.0,4.0
# From MPC 91613
P/2013 W1 (PANSTARRS),e,4.6992,117.8318,1.2274,3.485708,0.1514494,0.59361428,220.9684,09/09.0/2024,2000,g 17.5,4.0
# From MPC101095
P/2013 YG46 (Spacewatch),e,7.8175,48.7439,242.7737,3.281069,0.1658369,0.45904367,101.0086,09/09.0/2024,2000,g 10.0,4.0
# From MPC 89728
P/2014 A2 (Hill),e,24.5616,106.6539,356.1671,5.923787,0.0683605,0.64651943,272.3472,09/09.0/2024,2000,g 15.0,4.0
# From MPEC 2024-F34
P/2014 C1 (TOTAS),e,3.2456,40.0852,188.4955,4.006163,0.1229168,0.34767182,189.2047,09/09.0/2024,2000,g 15.5,4.0
# From MPEC 2022-WD2
C/2014 F3 (Sheppard-Trujillo),e,6.5210,325.9889,5.1063,14.41738,0.0180042,0.60279074,21.5965,09/09.0/2024,2000,g  6.0,4.0
# From MPC 98560
P/2014 L2 (NEOWISE),e,5.1937,149.3501,182.7109,6.309566,0.0621878,0.64669067,230.3579,09/09.0/2024,2000,g 12.0,4.0
# From MPC 90769
P/2014 L3 (Hill),e,6.2579,115.5271,178.6806,8.183073,0.0421046,0.77138931,157.0221,09/09.0/2024,2000,g 16.0,4.0
# From MPC 91614
P/2014 M4 (PANSTARRS),e,3.3465,263.2014,148.1019,5.864130,0.0694063,0.59612325,245.3826,09/09.0/2024,2000,g 15.0,4.0
# From MPEC 2024-Q26
P/2014 MG4 (Spacewatch-PANSTARRS),e,9.3649,311.6923,298.9297,5.013866,0.0877900,0.25871191,0.2312,09/09.0/2024,2000,g 13.5,4.0
# From MPC 98560
P/2014 O3 (PANSTARRS),e,7.7894,87.6260,204.7448,7.585261,0.0471790,0.38275091,179.5792,09/09.0/2024,2000,g 10.5,4.0
# From MPEC 2024-A43
C/2014 OG392 (PANSTARRS),e,9.0326,145.8228,255.0362,12.25898,0.0229627,0.18604523,22.6494,09/09.0/2024,2000,g  6.0,4.0
# From MPC 91616
P/2014 U4 (PANSTARRS),e,6.4248,11.9276,347.8539,3.511283,0.1497978,0.46410819,195.2972,09/09.0/2024,2000,g 18.0,4.0
# From MPEC 2024-R10
C/2014 UN271 (Bernardinelli-Bernstein),h,01/17.2409/2031,95.4396,189.9319,326.1021,1.003669,10.958193,2000,2.5,3.2
# From MPC 95211
P/2014 V1 (PANSTARRS),e,22.5074,166.1988,177.6637,5.480162,0.0768270,0.53371140,269.7823,09/09.0/2024,2000,g 14.0,4.0
# From MPC105542
P/2014 W4 (PANSTARRS),e,15.2853,33.3302,67.6694,6.581512,0.0583735,0.35479162,185.0201,09/09.0/2024,2000,g 11.0,4.0
# From MPC 94281
P/2014 X1 (Elenin),e,26.0536,61.5571,33.9137,6.200075,0.0638423,0.71068497,225.6221,09/09.0/2024,2000,g 15.0,4.0
# From MPC 92275
P/2015 A3 (PANSTARRS),e,172.5501,277.4620,249.6335,7.817667,0.0450908,0.85047935,157.2754,09/09.0/2024,2000,g 20.0,4.0
# From MPC 99270
P/2015 B1 (PANSTARRS),e,18.0775,352.8662,188.7173,9.478331,0.0337758,0.36649698,111.1588,09/09.0/2024,2000,g  8.5,4.0
# From MPC109141
P/2015 B4 (Lemmon-PANSTARRS),e,1.7671,266.1265,227.1040,8.506820,0.0397240,0.56206515,139.1402,09/09.0/2024,2000,g 11.0,4.0
# From MPC101096
P/2015 C1 (TOTAS-Gibbs),e,13.9479,348.7870,177.9912,6.559003,0.0586742,0.56473196,200.8448,09/09.0/2024,2000,g 12.5,4.0
# From MPC109141
P/2015 D5 (Kowalski),e,20.5526,74.0892,39.5982,8.945278,0.0368395,0.49149315,140.2743,09/09.0/2024,2000,g  9.0,4.0
# From MPEC 2024-R10
P/2015 D6 (Lemmon-PANSTARRS),e,20.2685,45.5196,125.8117,7.123203,0.0518431,0.36189121,174.0461,09/09.0/2024,2000,g 10.5,4.0
# From MPC 95213
P/2015 K5 (PANSTARRS),e,39.9314,134.2889,106.1627,6.727908,0.0564786,0.55143559,191.7315,09/09.0/2024,2000,g 13.5,4.0
# From MPC107684
P/2015 M2 (PANSTARRS),e,3.9678,86.6995,225.8971,7.253091,0.0504568,0.17808516,166.0480,09/09.0/2024,2000,g  8.5,4.0
# From MPC 99819
P/2015 P4 (PANSTARRS),e,8.7212,104.6921,280.7202,6.047346,0.0662761,0.58546205,208.6817,09/09.0/2024,2000,g 14.0,4.0
# From MPEC 2022-K19
P/2015 PD229 (Cameron-ISON),e,2.0216,342.7419,352.7193,7.203459,0.0509791,0.32581467,168.9690,09/09.0/2024,2000,g 11.5,2.0
# From MPC 96867
P/2015 Q2 (Pimentel),e,146.5582,228.5562,244.6746,7.350539,0.0494567,0.75169397,162.4736,09/09.0/2024,2000,g 15.5,4.0
# From MPC 98562
P/2015 R1 (PANSTARRS),e,22.6874,48.3779,300.5452,5.882986,0.0690728,0.63336951,231.9481,09/09.0/2024,2000,g 14.0,4.0
# From MPC 95734
P/2015 R2 (PANSTARRS),e,15.4813,168.6047,149.8737,4.481899,0.1038750,0.45224751,349.8491,09/09.0/2024,2000,g 14.5,4.0
# From MPC102953
P/2015 TO19 (Lemmon-PANSTARRS),e,6.5051,321.6604,89.2954,4.547742,0.1016273,0.35968717,315.2493,09/09.0/2024,2000,g 14.0,4.0
# From MPC110080
P/2015 TP200 (LINEAR),e,8.7805,6.9501,82.5193,7.262033,0.0503636,0.53727127,144.4501,09/09.0/2024,2000,g 11.0,4.0
# From MPC101098
P/2015 W2 (Catalina),e,11.6176,294.1042,117.6560,7.291988,0.0500536,0.63552662,163.1254,09/09.0/2024,2000,g 13.0,4.0
# From MPEC 2023-J29
P/2015 X3 (PANSTARRS),e,24.4226,77.2559,306.9438,4.999631,0.0881652,0.44003730,291.7239,09/09.0/2024,2000,g 15.0,4.0
# From MPC115881
P/2015 X6 (PANSTARRS),e,4.5654,106.9377,329.8281,2.751414,0.2159584,0.17367343,307.1339,09/09.0/2024,2000,g 16.0,4.0
# From MPC100282
P/2016 A2 (Christensen),e,26.4049,291.5935,141.3511,4.753777,0.0950924,0.27144514,321.1111,09/09.0/2024,2000,g 11.5,4.0
# From MPEC 2022-OB6
P/2016 A3 (PANSTARRS),e,8.5169,187.1607,340.8052,7.870349,0.0446389,0.38662441,120.2362,09/09.0/2024,2000,g 10.0,4.0
# From MPC102098
P/2016 A7 (PANSTARRS),e,16.5629,221.3836,352.4692,5.041155,0.0870781,0.56776409,273.3860,09/09.0/2024,2000,g 16.0,4.0
# From MPEC 2021-P47
P/2016 G1 (PANSTARRS),e,10.9703,204.0164,111.0942,2.584033,0.2372778,0.21016422,300.8788,09/09.0/2024,2000,g 14.0,4.0
# From MPEC 2024-C04
C/2016 J2 (Denneau),h,04/13.5140/2016,130.3455,186.3863,318.3577,1.000483,1.497097,2000,17.0,4.0
# From MPC102099
P/2016 P1 (PANSTARRS),e,24.3888,319.2690,270.7919,3.202949,0.1719408,0.28799347,204.0313,09/09.0/2024,2000,g 15.0,4.0
# From MPEC 2024-H50
C/2016 Q2 (PANSTARRS),h,05/12.1456/2021,109.3464,322.3401,84.5447,1.003027,7.080460,2000,6.0,4.0
# From MPEC 2022-K19
